PROMETHEUS 2-1          
1 41854U 16067G   23287.89684287  .00018178  00000+0  11691-2 0  9990
2 41854  98.0827  83.4362 0015758 170.4218 189.7312 15.08359774378517
PROMETHEUS 2-3          
1 41855U 16067H   23287.69221329  .00019578  00000+0  12604-2 0  9993
2 41855  98.0746  82.9562 0013282 180.0872 180.0355 15.08335196378486
DIDO-2                  
1 42000U 17008BE  23287.66609693  .00040310  00000+0  82085-3 0  9992
2 42000  97.1872 342.2041 0003971 333.1767  26.9277 15.46143079370359
PEASSS                  
1 42015U 17008BV  23287.64091762  .00226640  00000+0  15561-2 0  9994
2 42015  97.1860 352.8083 0002813 263.7847  96.3098 15.74027499371481
UCLSAT                  
1 42765U 17036A   23287.91539644  .00282702  00000+0  17214-2 0  9991
2 42765  97.1218 327.5340 0001636  25.5331 334.6016 15.76651709352553
AALTO-1                 
1 42775U 17036L   23287.59417031  .00037271  00000+0  89707-3 0  9997
2 42775  97.1413 314.5339 0009788  45.2146 314.9896 15.41141635350878
URSA MAIOR              
1 42776U 17036M   23287.60197335  .00045765  00000+0  99457-3 0  9992
2 42776  97.1417 316.3112 0008920  41.5301 318.6624 15.44164807350971
DIAMOND RED             
1 42783U 17036U   23287.60959985  .00061302  00000+0  11230-2 0  9994
2 42783  97.1377 320.2547 0007107  44.4308 315.7513 15.49088749351224
PEGASUS                 
1 42784U 17036V   23287.83130930  .00124546  00000+0  13595-2 0  9997
2 42784  97.1311 324.7704 0004101  32.5570 327.5941 15.62944134351553
DIAMOND GREEN           
1 42785U 17036W   23287.88360269  .00072267  00000+0  12208-2 0  9995
2 42785  97.1349 320.9738 0006551  45.4805 314.6982 15.51349873351363
DIAMOND BLUE            
1 42786U 17036X   23287.83492243  .00062422  00000+0  11099-2 0  9998
2 42786  97.1372 320.7496 0006788  41.1193 319.0569 15.49938236351267
SKCUBE                  
1 42789U 17036AA  23287.87857824  .00321389  00000+0  17214-2 0  9990
2 42789  97.1211 328.3696 0001241  12.6335 347.4963 15.79441355351793
ROBUSTA 1B              
1 42792U 17036AD  23287.82474369  .02387120  93894-2  18774-2 0  9993
2 42792  97.1057 331.0642 0005063 254.4033 105.6696 16.17098550351980
CICERO 6                
1 42793U 17036AE  23287.62399303  .00050567  00000+0  10344-2 0  9995
2 42793  97.1353 319.9808 0006829  47.8167 312.3661 15.45942724351308
CORVUS BC2              
1 42846U 17042X   23287.79705611  .00004618  00000+0  42171-3 0  9992
2 42846  97.3778 122.0008 0008964 161.9278 198.2264 14.95476491340594
CORVUS BC1              
1 42847U 17042Y   23287.84758053  .00004866  00000+0  44277-3 0  9991
2 42847  97.3783 122.4155 0008714 157.9792 202.1806 14.95594634340617
MIRATA                  
1 43015U 17073C   23287.94295991  .00025442  00000+0  14866-2 0  9994
2 43015  97.6146 172.3701 0200571  14.7723 345.9242 14.96439974319376
MAKERSAT 0              
1 43016U 17073D   23287.89250534  .00019204  00000+0  12288-2 0  9998
2 43016  97.6119 169.5471 0219026  27.2882 333.9644 14.90892366319138
CORVUS BC3              
1 43118U 18004H   23287.79386783  .00050334  00000+0  10483-2 0  9995
2 43118  97.3157   2.4290 0006733  75.1845 285.0150 15.45418069320466
CICERO 7                
1 43143U 18004AJ  23287.78084865  .00289476  00000+0  14523-2 0  9998
2 43143  97.3127  19.0329 0001859 297.6584  62.4495 15.80967798321459
GOMX-4B                 
1 43196U 18015E   23287.94609763  .00034406  00000+0  81788-3 0  9995
2 43196  97.5914  82.8965 0012740 134.3721 225.8571 15.41501887317363
GOMX-4A                 
1 43197U 18015F   23287.92474508  .00042865  00000+0  88486-3 0  9991
2 43197  97.5905  85.6549 0011952 127.0787 233.1556 15.45663444317556
CUBEBEL-1 (BSUSAT-1)    
1 43666U 18083E   23287.88656863  .00082869  00000+0  15138-2 0  9999
2 43666  97.3665 320.9074 0008392  60.1430 300.0653 15.49070068275656
CICERO 10               
1 43690U 18088A   23287.61311693  .00040860  00000+0  93463-3 0  9994
2 43690  85.0315 351.4676 0010946 139.7842 220.4223 15.42579829273865
PROXIMA I               
1 43694U 18088E   23287.88971128  .00052619  00000+0  10285-2 0  9997
2 43694  85.0233 346.3912 0012222 105.2793 254.9815 15.47160652274232
PROXIMA II              
1 43696U 18088G   23287.91586410  .00054079  00000+0  10645-2 0  9991
2 43696  85.0239 346.4478 0012419 105.3344 254.9284 15.46949415274229
SIRION PATHFINDER-2     
1 43759U 18099B   23287.66222191  .00007262  00000+0  59056-3 0  9990
2 43759  97.5630 345.9216 0015862  71.7731 288.5217 14.99755838265520
CORVUS BC4              
1 43767U 18099K   23287.40143009  .00007136  00000+0  58885-3 0  9990
2 43767  97.5546 343.4434 0011887  78.6896 281.5663 14.99242585265383
MOVE-II                 
1 43780U 18099Y   23287.91267433  .00020255  00000+0  13640-2 0  9995
2 43780  97.5590 349.5395 0009569 104.2285 256.0006 15.06689329265740
SPACEBEE-7              
1 43816U 18099BL  23287.94568813  .00014543  00000+0  10326-2 0  9995
2 43816  97.5840 350.5212 0012217  55.5201 304.7177 15.04763868265309
SPACEBEE-5              
1 43817U 18099BM  23287.14390656  .00129433  00000+0  44522-2 0  9996
2 43817  97.5793   0.2670 0002615  22.7167 337.4188 15.29526851265796
SPACEBEE-6              
1 43818U 18099BN  23287.17333452  .00029172  00000+0  18026-2 0  9990
2 43818  97.5778 352.4245 0012187  70.4729 289.7815 15.09753044265496
SHIELDS 1               
1 43850U 18104B   23287.94060519  .00015247  00000+0  51069-3 0  9992
2 43850  85.0217  89.2650 0010510 273.9435  86.0610 15.30760880268415
STF-1                   
1 43852U 18104D   23287.89191926  .00088063  00000+0  13306-2 0  9992
2 43852  85.0151  84.7450 0007523 268.1293  91.9105 15.54375595268910
ZACUBE-2                
1 43907U 18111AH  23287.89178311  .00062575  00000+0  11369-2 0  9991
2 43907  97.1146 165.1428 0014376 128.7333 231.5206 15.49231961267621
LUME 1                  
1 43908U 18111AJ  23287.92211675  .00095121  00000+0  12258-2 0  9998
2 43908  97.1140 170.1164 0012543 113.2367 247.0212 15.58613692267959
MOVE-IIB                
1 44398U 19038N   23287.94100111  .00202532  00000+0  21944-2 0  9993
2 44398  97.6649 278.0683 0009518 171.0813 189.0616 15.62838705237209
SONATE                  
1 44400U 19038Q   23287.90449686  .00018742  00000+0  76425-3 0  9999
2 44400  97.6964 268.3339 0017031 251.6380 108.3004 15.24363587236456
LUCKY-7                 
1 44406U 19038W   23287.92416602  .00027720  00000+0  99979-3 0  9994
2 44406  97.6919 270.1882 0014995 241.4013 118.5717 15.28389164236583
BEESAT 9                
1 44412U 19038AC  23287.90592762  .00050852  00000+0  13631-2 0  9993
2 44412  97.6834 273.1401 0010504 225.7084 134.3300 15.37768729236505
JAISAT-1                
1 44419U 19038F   23287.90034045  .00049858  00000+0  13294-2 0  9994
2 44419  97.6821 274.2566 0010146 220.6949 139.3537 15.37941570236883
DUCHIFAT-3              
1 44854U 19089C   23287.84216719  .00017057  00000+0  10679-2 0  9996
2 44854  36.9596  95.0027 0007404 232.7614 127.2455 15.08707346210963
EYESAT-NANO             
1 44877U 19092E   23287.50646357  .00370148  00000+0  32279-2 0  9996
2 44877  97.4456 122.1466 0004371  15.2537 344.8855 15.67844128212599
M2 PATHFINDER           
1 45727U 20037E   23287.44620152  .00007087  00000+0  65357-3 0  9993
2 45727  97.7646 100.8058 0010750 222.4161 137.6230 14.94929406179051
NETSAT-4                
1 46504U 20068U   23287.84811189  .00012096  00000+0  75662-3 0  9993
2 46504  97.7747 234.9930 0012901 117.1019 243.1527 15.09503341166946
NETSAT-3                
1 46505U 20068V   23287.83210271  .00010319  00000+0  65131-3 0  9994
2 46505  97.7713 234.7280 0011713 124.4982 235.7354 15.09229062166946
NETSAT-1                
1 46506U 20068W   23287.84124157  .00009177  00000+0  58910-3 0  9990
2 46506  97.7734 234.5590 0009955 131.2618 228.9469 15.08661608166934
NETSAT-2                
1 46507U 20068X   23287.85169700  .00012183  00000+0  76416-3 0  9997
2 46507  97.7732 234.7083 0009231 135.3474 224.8499 15.09435758166893
SAI-1 NANOCONNECT-2     
1 47701U 21015C   23287.77491934  .00268107  00000+0  19272-2 0  9990
2 47701  97.3706  15.2564 0003207 189.4565 170.6639 15.72827695146764
WILDTRACKCUBE-SIMBA     
1 47941U 21022K   23287.85569288  .00015228  00000+0  82730-3 0  9995
2 47941  97.4815 182.8076 0016085 285.2133  74.7320 15.14489305141107
BEESAT-6                
1 47957U 21022AB  23286.67641813  .00055730  00000+0  22003-2 0  9994
2 47957  97.4777 184.9316 0011158 277.7761  82.2210 15.25268925140959
SMOG-1                  
1 47964U 21022AJ  23287.64577343  .00046348  00000+0  17237-2 0  9994
2 47964  97.4837 188.3426 0009718 253.3097 106.7075 15.27321790140262
BCCSAT-1                
1 48041U 21022AK  23287.68461252  .00037692  00000+0  15490-2 0  9997
2 48041  97.4828 186.8186 0008184 256.7600 103.2725 15.24049916140143
BEESAT-5                
1 48083U 21022AM  23287.23178824  .00056460  00000+0  20806-2 0  9995
2 48083  97.4657 185.8518 0010035 270.5562  89.4527 15.27568252140211
BEESAT-7                
1 48084U 21022AN  23286.69089116  .00052158  00000+0  20116-2 0  9994
2 48084  97.4774 185.1728 0010673 275.4160  84.5861 15.26074453139695
BEESAT-8                
1 48085U 21022AP  23287.46015448  .00022549  00000+0  10665-2 0  9997
2 48085  97.4853 184.6517 0013803 279.2398  80.7276 15.19302734140279
LEDSAT                  
1 49069U 21073D   23287.64741691  .00017655  00000+0  89587-3 0  9994
2 49069  97.4713 356.6115 0023943  68.1008 292.2767 15.16727867118995
